SL-14 R/B               
1 20511U 90018B   26162.40820262  .00000325  00000+0  37752-4 0  9995
2 20511  82.5207 135.5092 0017121 139.4645 220.7848 14.82212239936467
HST                     
1 20580U 90037B   26162.21026604  .00005021  00000+0  15696-3 0  9999
2 20580  28.4707 121.4212 0001970  81.6673 278.4146 15.30680019787654
SL-16 R/B               
1 20625U 90046B   26162.57563544  .00000289  00000+0  17355-3 0  9992
2 20625  70.9991 100.7329 0013816 170.1513 189.9883 14.15023715861674
COSMOS 2084             
1 20663U 90055A   26162.68353403  .00001841  00000+0  13908-3 0  9992
2 20663  62.7911  14.8759 0005481 269.0881  90.9592 15.06094031950479
SL-6 R/B(2)             
1 20666U 90055D   26162.66382326  .00001452  00000+0  11764-3 0  9995
2 20666  62.7826 294.1715 0039746   4.3924 355.7516 15.03984997952321
SL-8 R/B                
1 20775U 90078B   26162.49537720  .00019183  00000+0  54013-3 0  9996
2 20775  82.9014 166.7865 0352191  57.6230 305.8559 14.92097617823273
SL-8 R/B                
1 21088U 91006B   26162.33569192  .00000034  00000+0  18430-4 0  9996
2 21088  82.9424 100.3866 0023443 130.1448 343.6788 13.77505484776969
OKEAN-3                 
1 21397U 91039A   26162.68782410  .00001847  00000+0  12697-3 0  9994
2 21397  82.5159 245.7137 0014479  18.0260 342.1477 15.05299375879171
COSMOS 2151             
1 21422U 91042A   26162.65789159  .00001430  00000+0  11145-3 0  9996
2 21422  82.4960 353.0176 0013799 100.5422 259.7357 15.00422190877284
SL-14 R/B               
1 21423U 91042B   26162.61608757  .00000338  00000+0  39727-4 0  9990
2 21423  82.4924 132.1200 0015564 295.0051  64.9547 14.81899025866984
ERS-1                   
1 21574U 91050A   26162.67371507  .00000270  00000+0  10113-3 0  9994
2 21574  98.7798 183.2369 0030723 284.0402  75.7370 14.39513988829252
ARIANE 40 R/B           
1 21610U 91050F   26162.64029108  .00000242  00000+0  84666-4 0  9993
2 21610  98.1877 211.2730 0004032 133.2690 226.8837 14.42953853832543
INTERCOSMOS 25          
1 21819U 91086A   26162.66448756  .00000443  00000+0  88377-4 0  9995
2 21819  82.6056 253.1518 1484221 274.3176  69.0307 12.12189031508070
SL-8 R/B                
1 21876U 92008B   26162.60990654  .00000125  00000+0  11337-3 0  9994
2 21876  82.9264 197.9343 0033535 230.7167 242.5457 13.75975437722335
SL-8 R/B                
1 21938U 92020B   26162.54963970  .00000037  00000+0  22257-4 0  9997
2 21938  82.9306  84.0446 0030057  37.9129 140.8127 13.75548269714033
USA 81                  
1 21949U 92023A   26162.68634733  .00000140  00000+0  44285-4 0  9999
2 21949  85.0077  77.1822 0002788  89.6654 270.4858 14.32396758108241
COSMOS 2219             
1 22219U 92076A   26162.46086979  .00000111  00000+0  82986-4 0  9995
2 22219  71.0575 182.0431 0016333  53.5171 306.7454 14.14096146731635
SL-16 R/B               
1 22220U 92076B   26162.66590425 -.00000126  00000+0 -38625-4 0  9994
2 22220  71.0004 350.4129 0014542 305.8340 123.1522 14.16871221735144
COSMOS 2221             
1 22236U 92080A   26162.72309329  .00001197  00000+0  10294-3 0  9992
2 22236  82.5031 188.9997 0012869 232.2830 127.7226 14.96519585794856
SL-16 R/B               
1 22285U 92093B   26162.44754698 -.00000232  00000+0 -94362-4 0  9992
2 22285  71.0199 167.4407 0004276 197.4318 162.6659 14.15463805726422
COSMOS 2228             
1 22286U 92094A   26162.67557613  .00001740  00000+0  14639-3 0  9998
2 22286  82.5171 147.3220 0017447 351.3989   8.6932 14.97566769790123
SL-16 R/B               
1 22566U 93016B   26162.70973100  .00000259  00000+0  15732-3 0  9990
2 22566  71.0081  17.7124 0010588 191.2245 168.8643 14.15310541715473
COSMOS 2242             
1 22626U 93024A   26162.49881772  .00001452  00000+0  12406-3 0  9996
2 22626  82.5179 176.9851 0015927 355.9076   4.2013 14.96886718794422
SL-16 R/B               
1 22803U 93059B   26162.49058634  .00000281  00000+0  16294-3 0  9992
2 22803  70.9884 173.3170 0015064  63.8399 296.4272 14.17246336692825
ARIANE 40 R/B           
1 22830U 93061H   26162.68896855  .00000150  00000+0  70630-4 0  9991
2 22830  98.4819 229.6601 0010826  12.7483 347.3973 14.32905589707561
COSMOS 2278             
1 23087U 94023A   26162.65981984  .00000303  00000+0  18285-3 0  9997
2 23087  71.0546 338.4901 0010591 249.4845 110.5142 14.14395518658098
SL-16 R/B               
1 23088U 94023B   26162.59335294  .00000299  00000+0  17905-3 0  9990
2 23088  70.9993 233.6789 0003135 191.8566 168.2483 14.15021446659376
SL-16 R/B               
1 23343U 94074B   26162.67897831  .00000356  00000+0  54199-4 0  9990
2 23343  97.6993 189.6293 0005081 276.8907 196.5962 14.79497698701146
SL-16 R/B               
1 23405U 94077B   26162.39695764 -.00000193  00000+0 -74025-4 0  9993
2 23405  70.9805 155.3442 0002695 331.6399  28.4576 14.15572204629498
ARIANE 40+ R/B          
1 23561U 95021B   26162.71362476  .00000210  00000+0  80885-4 0  9992
2 23561  98.4411 232.8675 0006070 210.9036 263.1685 14.39830362632778
SL-16 R/B               
1 23705U 95058B   26162.69114661  .00000119  00000+0  85287-4 0  9999
2 23705  71.0215 342.8981 0013510 327.9857  32.0443 14.15505599581151
